{
  "norad_id": 48059,
  "name": "ONEWEB-0148",
  "history": [
    {
      "epoch": "2026-03-28T18:06:00.748512Z",
      "apogee_km": 1210.7603558435749,
      "perigee_km": 1208.7805190349973,
      "latitude_deg": -3.7641703983993774e-05,
      "longitude_deg": -121.43140516718874,
      "height_km": 1212.2139674564696,
      "semi_major_axis_km": 7587.907437439286,
      "eccentricity": 0.00013046,
      "inclination_deg": 87.9015,
      "raan_deg": 336.2418,
      "arg_perigee_deg": 63.1704,
      "mean_anomaly_deg": 296.9558,
      "mean_motion_rev_day": 13.13468692
    },
    {
      "epoch": "2026-03-29T05:04:11.210304Z",
      "apogee_km": 1210.7559832959014,
      "perigee_km": 1208.7800928239894,
      "latitude_deg": 2.912634094409463e-05,
      "longitude_deg": 73.48380213495336,
      "height_km": 1212.220382634993,
      "semi_major_axis_km": 7587.905038059945,
      "eccentricity": 0.0001302,
      "inclination_deg": 87.9013,
      "raan_deg": 336.1511,
      "arg_perigee_deg": 63.6851,
      "mean_anomaly_deg": 296.4412,
      "mean_motion_rev_day": 13.13469315
    }
  ]
}